[{"OBJECT_NAME":"COSMOS 2439","OBJECT_ID":"2008-025D","EPOCH":"2026-03-09T22:23:45.088800","MEAN_MOTION":12.43068607,"ECCENTRICITY":0.00209458,"INCLINATION":82.5031,"RA_OF_ASC_NODE":59.4882,"ARG_OF_PERICENTER":168.4483,"MEAN_ANOMALY":191.7082,"EPHEMERIS_TYPE":0,"CLASSIFICATION_TYPE":"U","NORAD_CAT_ID":32956,"ELEMENT_SET_NO":999,"REV_AT_EPOCH":80738,"BSTAR":0.0010299909,"MEAN_MOTION_DOT":1.53e-6,"MEAN_MOTION_DDOT":0},{"OBJECT_NAME":"COSMOS 713","OBJECT_ID":"1975-016C","EPOCH":"2026-03-09T16:24:10.334880","MEAN_MOTION":12.55673982,"ECCENTRICITY":0.00591854,"INCLINATION":74.0044,"RA_OF_ASC_NODE":152.54,"ARG_OF_PERICENTER":296.568,"MEAN_ANOMALY":135.8663,"EPHEMERIS_TYPE":0,"CLASSIFICATION_TYPE":"U","NORAD_CAT_ID":7680,"ELEMENT_SET_NO":999,"REV_AT_EPOCH":33891,"BSTAR":0.0001196236,"MEAN_MOTION_DOT":3.0e-8,"MEAN_MOTION_DDOT":0}]
